OBJECT_NAME,OBJECT_ID,EPOCH,MEAN_MOTION,ECCENTRICITY,INCLINATION,RA_OF_ASC_NODE,ARG_OF_PERICENTER,MEAN_ANOMALY,EPHEMERIS_TYPE,CLASSIFICATION_TYPE,NORAD_CAT_ID,ELEMENT_SET_NO,REV_AT_EPOCH,BSTAR,MEAN_MOTION_DOT,MEAN_MOTION_DDOT
STARLINK-31563,2024-045N,2026-07-15T03:03:13.078944,15.27513132,.00014418,42.9984,92.6443,248.0878,111.9820,0,U,59190,999,13265,.38927146E-3,.10443E-3,0
STARLINK-31551,2024-045P,2026-07-15T02:47:14.873568,15.27580550,.00011305,43.0012,89.1248,282.9103,77.1623,0,U,59191,999,13269,.53145373E-4,.1201E-4,0
STARLINK-31536,2024-045Q,2026-07-15T22:00:01.999584,15.27605095,.00013529,42.9996,88.3793,268.4531,33.2484,0,U,59192,999,585,-.67715165E-3,-.18863E-3,0
STARLINK-31548,2024-045R,2026-07-15T02:31:57.312480,15.27584758,.00012349,43.0054,93.3379,263.8777,96.1934,0,U,59193,999,13264,-.11217098E-4,-.571E-5,0
STARLINK-31542,2024-045S,2026-07-15T01:08:41.788032,15.27580128,.00010191,43.0021,92.9058,277.3778,82.6958,0,U,59194,999,13264,.44363698E-4,.959E-5,0
STARLINK-31554,2024-045T,2026-07-15T17:53:10.413888,15.27589661,.00010379,43.0027,89.5420,259.7546,100.3189,0,U,59195,999,13274,.96791653E-4,.2403E-4,0
STARLINK-31558,2024-045U,2026-07-15T02:48:23.622912,15.27577983,.00011508,43.0016,92.5654,268.9701,91.1019,0,U,59196,999,13266,.84881267E-4,.2074E-4,0
STARLINK-31275,2024-045V,2026-07-15T17:58:43.607712,15.27583737,.00007619,42.9998,89.5717,242.1746,117.9028,0,U,59197,999,13274,.43473003E-3,.11721E-3,0
STARLINK-31590,2024-045W,2026-07-15T18:09:49.644576,15.27575742,.00012234,43.0045,89.6286,299.3473,60.7256,0,U,59198,999,13274,.10013359E-4,.13E-6,0
STARLINK-31567,2024-045X,2026-07-15T01:34:35.805216,15.27563137,.00011654,43.0033,93.0357,250.3708,109.7018,0,U,59199,999,13264,-.38115783E-4,-.131E-4,0
STARLINK-31503,2024-045Y,2026-07-15T03:14:17.624544,15.27584689,.00011635,42.9993,92.6960,260.7361,99.3359,0,U,59200,999,13265,.13569803E-3,.3474E-4,0
STARLINK-31603,2024-046A,2026-07-15T11:56:54.986496,15.30189490,.00010278,53.1599,281.9658,107.4113,252.7000,0,U,59201,999,13261,.30377029E-4,.54E-5,0
STARLINK-31602,2024-046B,2026-07-15T16:43:28.627968,15.34398948,.00010384,53.1594,278.2369,110.0006,250.1108,0,U,59202,999,13268,-.28141181E-4,-.1327E-4,0
STARLINK-31577,2024-046C,2026-07-15T22:00:01.999584,15.34411507,.00011636,53.1574,276.9379,87.2565,187.3254,0,U,59203,999,587,-.74826423E-3,-.25581E-3,0
STARLINK-31522,2024-046D,2026-07-15T11:53:52.132992,15.30192106,.00013104,53.1609,281.9529,105.7472,254.3674,0,U,59204,999,13261,-.15749604E-4,-.825E-5,0
STARLINK-31586,2024-046E,2026-07-15T12:51:27.153216,15.30200237,.00011858,53.1605,281.4890,95.1577,264.9559,0,U,59205,999,13262,-.23680587E-4,-.106E-4,0
STARLINK-31247,2024-046F,2026-07-15T13:11:13.215264,15.30179267,.00008582,53.1605,281.5704,71.9581,288.1513,0,U,59206,999,13262,-.13981704E-4,-.773E-5,0
STARLINK-31591,2024-046G,2026-07-15T12:05:07.704960,15.34378636,.00010624,53.1599,279.1694,91.5219,268.5906,0,U,59207,999,13265,.11614873E-3,.3547E-4,0
STARLINK-31576,2024-046H,2026-07-15T12:11:11.493024,15.34397505,.00008501,53.1590,279.1909,69.0347,291.0746,0,U,59208,999,13265,.32023699E-3,.10458E-3,0
STARLINK-31601,2024-046J,2026-07-15T17:50:00.733056,15.34390553,.00011342,53.1587,277.8154,102.9104,257.2025,0,U,59209,999,13269,.12695069E-4,.53E-6,0
STARLINK-31520,2024-046K,2026-07-15T17:48:48.396384,15.30197066,.00012129,53.1611,280.6383,81.3800,278.7339,0,U,59210,999,13265,.7597605E-5,-.134E-5,0
STARLINK-31496,2024-046L,2026-07-15T15:18:33.072192,15.34394731,.00012279,53.1598,267.9255,82.2487,277.8655,0,U,59211,999,13281,.35032142E-4,.807E-5,0
STARLINK-31492,2024-046M,2026-07-15T11:59:56.789376,15.30188161,.00008763,53.1612,281.9688,105.5060,254.6038,0,U,59212,999,13260,.1777794E-5,-.306E-5,0
STARLINK-31517,2024-046N,2026-07-15T16:55:36.406272,15.34392306,.00011324,53.1596,278.3178,82.3941,277.7190,0,U,59213,999,13267,.13987917E-4,.96E-6,0
STARLINK-31604,2024-046P,2026-07-15T12:08:09.449952,15.34392434,.00009679,53.1602,279.1757,89.0016,271.1097,0,U,59214,999,13264,.5006142E-5,-.207E-5,0
STARLINK-31434,2024-046Q,2026-07-15T17:46:58.854144,15.34395569,.00011539,53.1586,277.8019,100.8940,259.2193,0,U,59215,999,13268,-.24851045E-4,-.1216E-4,0
STARLINK-31417,2024-046R,2026-07-15T11:58:25.880160,15.30190172,.00009115,53.1603,281.9699,68.2416,291.8682,0,U,59216,999,13248,-.15374742E-4,-.814E-5,0
STARLINK-31499,2024-046S,2026-07-15T13:23:46.404672,15.34391586,.0001003,53.1581,278.7920,100.5914,259.5202,0,U,59217,999,13265,.21847E-4,.362E-5,0
STARLINK-31421,2024-046T,2026-07-15T17:53:02.904000,15.34391984,.00007506,53.1586,277.8525,92.0639,268.0450,0,U,59218,999,13268,.37748368E-4,.899E-5,0
STARLINK-31518,2024-046U,2026-07-15T16:37:25.150080,15.34396169,.00010915,53.1585,278.2097,86.0159,274.0968,0,U,59219,999,13267,.18673148E-4,.255E-5,0
