STARLINK-31563          
1 59190U 24045N   26196.12723471  .00010443  00000+0  38927-3 0  9993
2 59190  42.9984  92.6443 0001441 248.0878 111.9820 15.27513132132656
STARLINK-31551          
1 59191U 24045P   26196.11614437  .00001201  00000+0  53145-4 0  9996
2 59191  43.0012  89.1248 0001130 282.9103  77.1623 15.27580550132694
STARLINK-31536          
1 59192U 24045Q   26196.91668981 -.00018863  00000+0 -67715-3 0  9999
2 59192  42.9996  88.3793 0001352 268.4531  33.2484 15.27605095  5857
STARLINK-31548          
1 59193U 24045R   26196.10552445 -.00000571  00000+0 -11217-4 0  9992
2 59193  43.0054  93.3379 0001234 263.8777  96.1934 15.27584758132649
STARLINK-31542          
1 59194U 24045S   26196.04770588  .00000959  00000+0  44364-4 0  9993
2 59194  43.0021  92.9058 0001019 277.3778  82.6958 15.27580128132648
STARLINK-31554          
1 59195U 24045T   26196.74525942  .00002403  00000+0  96792-4 0  9991
2 59195  43.0027  89.5420 0001037 259.7546 100.3189 15.27589661132743
STARLINK-31558          
1 59196U 24045U   26196.11694008  .00002074  00000+0  84881-4 0  9993
2 59196  43.0016  92.5654 0001150 268.9701  91.1019 15.27577983132660
STARLINK-31275          
1 59197U 24045V   26196.74911583  .00011721  00000+0  43473-3 0  9993
2 59197  42.9998  89.5717 0000761 242.1746 117.9028 15.27583737132744
STARLINK-31590          
1 59198U 24045W   26196.75682459  .00000013  00000+0  10013-4 0  9999
2 59198  43.0045  89.6286 0001223 299.3473  60.7256 15.27575742132742
STARLINK-31567          
1 59199U 24045X   26196.06569219 -.00001310  00000+0 -38116-4 0  9999
2 59199  43.0033  93.0357 0001165 250.3708 109.7018 15.27563137132645
STARLINK-31503          
1 59200U 24045Y   26196.13492621  .00003474  00000+0  13570-3 0  9999
2 59200  42.9993  92.6960 0001163 260.7361  99.3359 15.27584689132652
STARLINK-31603          
1 59201U 24046A   26196.49785864  .00000540  00000+0  30377-4 0  9990
2 59201  53.1599 281.9658 0001027 107.4113 252.7000 15.30189490132616
STARLINK-31602          
1 59202U 24046B   26196.69685912 -.00001327  00000+0 -28141-4 0  9998
2 59202  53.1594 278.2369 0001038 110.0006 250.1108 15.34398948132685
STARLINK-31577          
1 59203U 24046C   26196.91668981 -.00025581  00000+0 -74826-3 0  9999
2 59203  53.1574 276.9379 0001163  87.2565 187.3254 15.34411507  5874
STARLINK-31522          
1 59204U 24046D   26196.49574228 -.00000825  00000+0 -15750-4 0  9999
2 59204  53.1609 281.9529 0001310 105.7472 254.3674 15.30192106132615
STARLINK-31586          
1 59205U 24046E   26196.53573094 -.00001060  00000+0 -23681-4 0  9999
2 59205  53.1605 281.4890 0001185  95.1577 264.9559 15.30200237132621
STARLINK-31247          
1 59206U 24046F   26196.54945851 -.00000773  00000+0 -13982-4 0  9998
2 59206  53.1605 281.5704 0000858  71.9581 288.1513 15.30179267132626
STARLINK-31591          
1 59207U 24046G   26196.50356140  .00003547  00000+0  11615-3 0  9992
2 59207  53.1599 279.1694 0001062  91.5219 268.5906 15.34378636132650
STARLINK-31576          
1 59208U 24046H   26196.50777191  .00010458  00000+0  32024-3 0  9992
2 59208  53.1590 279.1909 0000850  69.0347 291.0746 15.34397505132656
STARLINK-31601          
1 59209U 24046J   26196.74306404  .00000053  00000+0  12695-4 0  9997
2 59209  53.1587 277.8154 0001134 102.9104 257.2025 15.34390553132698
STARLINK-31520          
1 59210U 24046K   26196.74222681 -.00000134  00000+0  75976-5 0  9996
2 59210  53.1611 280.6383 0001212  81.3800 278.7339 15.30197066132656
STARLINK-31496          
1 59211U 24046L   26196.63788278  .00000807  00000+0  35032-4 0  9998
2 59211  53.1598 267.9255 0001227  82.2487 277.8655 15.34394731132815
STARLINK-31492          
1 59212U 24046M   26196.49996284 -.00000306  00000+0  17778-5 0  9994
2 59212  53.1612 281.9688 0000876 105.5060 254.6038 15.30188161132603
STARLINK-31517          
1 59213U 24046N   26196.70528248  .00000096  00000+0  13988-4 0  9993
2 59213  53.1596 278.3178 0001132  82.3941 277.7190 15.34392306132679
STARLINK-31604          
1 59214U 24046P   26196.50566493 -.00000207  00000+0  50061-5 0  9995
2 59214  53.1602 279.1757 0000967  89.0016 271.1097 15.34392434132645
STARLINK-31434          
1 59215U 24046Q   26196.74095896 -.00001216  00000+0 -24851-4 0  9995
2 59215  53.1586 277.8019 0001153 100.8940 259.2193 15.34395569132689
STARLINK-31417          
1 59216U 24046R   26196.49891065 -.00000814  00000+0 -15375-4 0  9994
2 59216  53.1603 281.9699 0000911  68.2416 291.8682 15.30190172132488
STARLINK-31499          
1 59217U 24046S   26196.55817598  .00000362  00000+0  21847-4 0  9998
2 59217  53.1581 278.7920 0001003 100.5914 259.5202 15.34391586132655
STARLINK-31421          
1 59218U 24046T   26196.74517250  .00000899  00000+0  37748-4 0  9994
2 59218  53.1586 277.8525 0000750  92.0639 268.0450 15.34391984132684
STARLINK-31518          
1 59219U 24046U   26196.69265220  .00000255  00000+0  18673-4 0  9998
2 59219  53.1585 278.2097 0001091  86.0159 274.0968 15.34396169132672
